QIANFAN-148             
1 69107U 26108D   26159.13493128  .00000272  00000+0  12736-3 0  9996
2 69107  89.0119  23.2232 0016303 144.5050 215.7226 14.17403201  3066
QIANFAN-149             
1 69108U 26108E   26159.13179209  .00000278  00000+0  12892-3 0  9997
2 69108  89.0121  23.2232 0015946 143.7715 216.4557 14.17857779  3069
QIANFAN-150             
1 69109U 26108F   26159.12306892  .00000295  00000+0  13621-3 0  9997
2 69109  89.0122  23.2220 0015984 145.4826 214.7404 14.18306356  3065
QIANFAN-151             
1 69110U 26108G   26159.11706256  .00000312  00000+0  14330-3 0  9994
2 69110  89.0121  23.2209 0016097 144.0773 216.1502 14.18802088  3063
QIANFAN-152             
1 69111U 26108H   26159.11178663  .00000298  00000+0  13477-3 0  9994
2 69111  89.0120  23.2199 0015295 143.9926 216.2297 14.19419295  3065
QIANFAN-153             
1 69112U 26108J   26159.10651521  .00000294  00000+0  13211-3 0  9995
2 69112  89.0117  23.2187 0016497 143.9568 216.2737 14.19642461  3068
QIANFAN-154             
1 69113U 26108K   26159.09934233  .00000298  00000+0  13276-3 0  9993
2 69113  89.0122  23.2185 0016165 141.9135 218.3201 14.20190544  3064
QIANFAN-155             
1 69114U 26108L   26159.10276691  .00000306  00000+0  13818-3 0  9995
2 69114  89.0122  23.2190 0016874 142.2207 218.0171 14.19535960  3068
QIANFAN-156             
1 69115U 26108M   26159.09400256  .00000306  00000+0  13436-3 0  9996
2 69115  89.0125  23.2182 0016509 143.4495 216.7825 14.20958405  3066
QIANFAN-157             
1 69116U 26108N   26157.30898275  .00000375  00000+0  15436-3 0  9999
2 69116  89.0123  23.4118 0016590 153.6669 206.5371 14.24908081  2816
QIANFAN-158             
1 69117U 26108P   26159.08690933  .00000321  00000+0  13886-3 0  9996
2 69117  89.0121  23.2164 0016443 144.7542 215.4740 14.21847912  3061
QIANFAN-159             
1 69118U 26108Q   26159.08254111  .00000330  00000+0  14188-3 0  9997
2 69118  89.0119  23.2155 0016166 144.6163 215.6104 14.22294291  3062
QIANFAN-160             
1 69119U 26108R   26159.14927770  .00000305  00000+0  12967-3 0  9998
2 69119  89.0121  23.2075 0015884 144.2250 216.0009 14.22718606  3077
QIANFAN-161             
1 69120U 26108S   26159.14537816  .00000301  00000+0  12687-3 0  9993
2 69120  89.0121  23.2069 0015904 144.9973 215.2268 14.23189483  3078
QIANFAN-162             
1 69121U 26108T   26159.14289047  .00000315  00000+0  13186-3 0  9994
2 69121  89.0121  23.2064 0015740 146.1685 214.0515 14.23624970  3073
SMILE                   
1 69123U 26109A   26144.65318427 -.00001976  00000+0 -42379-3 0  9994
2 69123  70.0007 229.2745 0009123 259.5159 100.4951 14.57062785   802
STARLINK-37726          
1 69124U 26110A   26159.16672454  .00016395  00000+0  30279-3 0  9997
2 69124  97.2854 355.3028 0001534  89.8806 138.9990 15.49158949  4207
STARLINK-37722          
1 69125U 26110B   26159.16672454 -.02498921  00000+0 -40885-1 0  9993
2 69125  97.2849 355.4593 0002230  92.7995 138.4519 15.56314841  4256
STARLINK-37715          
1 69126U 26110C   26159.16672454 -.02621099  00000+0 -29761-1 0  9998
2 69126  97.2854 355.5147 0001494  91.7210 280.2889 15.65929013  4203
STARLINK-37706          
1 69127U 26110D   26159.16672454 -.02619573  00000+0 -29315-1 0  9998
2 69127  97.2855 355.5183 0001577  89.4655 290.0607 15.66284231  4208
STARLINK-37723          
1 69128U 26110E   26159.16672454 -.02646881  00000+0 -29192-1 0  9994
2 69128  97.2856 355.5221 0001528  86.5349 301.3357 15.66685156  4206
STARLINK-37720          
1 69129U 26110F   26159.16672454 -.00005832  00000+0 -10569-3 0  9998
2 69129  97.2856 355.3222 0001772  90.2760 187.5456 15.49177609  4200
STARLINK-37533          
1 69130U 26110G   26156.86930582 -.00053675  00000+0 -28200-3 0  9992
2 69130  97.2839 353.1262 0001606  86.5092 273.6360 15.80753113  3851
STARLINK-37530          
1 69131U 26110H   26156.93185300  .00052184  00000+0  27125-3 0  9998
2 69131  97.2840 353.1944 0000830  62.1150 298.0203 15.80840143  3862
STARLINK-37660          
1 69132U 26110J   26159.16672454 -.01936593  00000+0 -27452-1 0  9997
2 69132  97.2849 355.4810 0001752  98.9919 185.7211 15.59762351  4203
STARLINK-37633          
1 69133U 26110K   26159.16672454 -.00994534  00000+0 -13405-1 0  9999
2 69133  97.2849 355.4890 0001295  94.4642 212.0617 15.60524761  4205
STARLINK-37361          
1 69134U 26110L   26159.16672454 -.02664105  00000+0 -26531-1 0  9994
2 69134  97.2850 355.5440 0001775  81.6300 356.9154 15.69191279  4209
STARLINK-37372          
1 69135U 26110M   26159.16672454 -.02641282  00000+0 -37951-1 0  9994
2 69135  97.2850 355.5042 0001417  87.6573 258.2288 15.59986582  4209
STARLINK-37531          
1 69136U 26110N   26159.16672454 -.02622334  00000+0 -28971-1 0  9994
2 69136  97.2851 355.5320 0001716  74.4470 335.7705 15.66603536  4200
