OBJECT_NAME,OBJECT_ID,EPOCH,MEAN_MOTION,ECCENTRICITY,INCLINATION,RA_OF_ASC_NODE,ARG_OF_PERICENTER,MEAN_ANOMALY,EPHEMERIS_TYPE,CLASSIFICATION_TYPE,NORAD_CAT_ID,ELEMENT_SET_NO,REV_AT_EPOCH,BSTAR,MEAN_MOTION_DOT,MEAN_MOTION_DDOT
QIANFAN-148,2026-108D,2026-06-08T03:14:18.062592,14.17403201,.0016303,89.0119,23.2232,144.5050,215.7226,0,U,69107,999,306,.12736E-3,.272E-5,0
QIANFAN-149,2026-108E,2026-06-08T03:09:46.836576,14.17857779,.0015946,89.0121,23.2232,143.7715,216.4557,0,U,69108,999,306,.12892E-3,.278E-5,0
QIANFAN-150,2026-108F,2026-06-08T02:57:13.154688,14.18306356,.0015984,89.0122,23.2220,145.4826,214.7404,0,U,69109,999,306,.13621E-3,.295E-5,0
QIANFAN-151,2026-108G,2026-06-08T02:48:34.205184,14.18802088,.0016097,89.0121,23.2209,144.0773,216.1502,0,U,69110,999,306,.1433E-3,.312E-5,0
QIANFAN-152,2026-108H,2026-06-08T02:40:58.364832,14.19419295,.0015295,89.0120,23.2199,143.9926,216.2297,0,U,69111,999,306,.13477E-3,.298E-5,0
QIANFAN-153,2026-108J,2026-06-08T02:33:22.914144,14.19642461,.0016497,89.0117,23.2187,143.9568,216.2737,0,U,69112,999,306,.13211E-3,.294E-5,0
QIANFAN-154,2026-108K,2026-06-08T02:23:03.177312,14.20190544,.0016165,89.0122,23.2185,141.9135,218.3201,0,U,69113,999,306,.13276E-3,.298E-5,0
QIANFAN-155,2026-108L,2026-06-08T02:27:59.061024,14.19535960,.0016874,89.0122,23.2190,142.2207,218.0171,0,U,69114,999,306,.13818E-3,.306E-5,0
QIANFAN-156,2026-108M,2026-06-08T02:15:21.821184,14.20958405,.0016509,89.0125,23.2182,143.4495,216.7825,0,U,69115,999,306,.13436E-3,.306E-5,0
QIANFAN-157,2026-108N,2026-06-06T07:24:56.109600,14.24908081,.00165908,89.0123,23.4118,153.6669,206.5371,0,U,69116,999,281,.15435736E-3,.375E-5,0
QIANFAN-158,2026-108P,2026-06-08T02:05:08.966112,14.21847912,.0016443,89.0121,23.2164,144.7542,215.4740,0,U,69117,999,306,.13886E-3,.321E-5,0
QIANFAN-159,2026-108Q,2026-06-08T01:58:51.551904,14.22294291,.0016166,89.0119,23.2155,144.6163,215.6104,0,U,69118,999,306,.14188E-3,.33E-5,0
QIANFAN-160,2026-108R,2026-06-08T03:34:57.593280,14.22718606,.0015884,89.0121,23.2075,144.2250,216.0009,0,U,69119,999,307,.12967E-3,.305E-5,0
QIANFAN-161,2026-108S,2026-06-08T03:29:20.673024,14.23189483,.0015904,89.0121,23.2069,144.9973,215.2268,0,U,69120,999,307,.12687E-3,.301E-5,0
QIANFAN-162,2026-108T,2026-06-08T03:25:45.736608,14.23624970,.001574,89.0121,23.2064,146.1685,214.0515,0,U,69121,999,307,.13186E-3,.315E-5,0
SMILE,2026-109A,2026-05-24T15:40:35.120928,14.57062785,.00091232,70.0007,229.2745,259.5159,100.4951,0,U,69123,999,80,-.42378883E-3,-.1976E-4,0
STARLINK-37726,2026-110A,2026-06-08T04:00:05.000256,15.49158949,.0001534,97.2854,355.3028,89.8806,138.9990,0,U,69124,999,420,.30279E-3,.16395E-3,0
STARLINK-37722,2026-110B,2026-06-08T04:00:05.000256,15.56314841,.000223,97.2849,355.4593,92.7995,138.4519,0,U,69125,999,425,-.40885E-1,-.2498921E-1,0
STARLINK-37715,2026-110C,2026-06-08T04:00:05.000256,15.65929013,.0001494,97.2854,355.5147,91.7210,280.2889,0,U,69126,999,420,-.29761E-1,-.2621099E-1,0
STARLINK-37706,2026-110D,2026-06-08T04:00:05.000256,15.66284231,.0001577,97.2855,355.5183,89.4655,290.0607,0,U,69127,999,420,-.29315E-1,-.2619573E-1,0
STARLINK-37723,2026-110E,2026-06-08T04:00:05.000256,15.66685156,.0001528,97.2856,355.5221,86.5349,301.3357,0,U,69128,999,420,-.29192E-1,-.2646881E-1,0
STARLINK-37720,2026-110F,2026-06-08T04:00:05.000256,15.49177609,.0001772,97.2856,355.3222,90.2760,187.5456,0,U,69129,999,420,-.10569E-3,-.5832E-4,0
STARLINK-37533,2026-110G,2026-06-05T20:51:48.022848,15.80753113,.00016063,97.2839,353.1262,86.5092,273.6360,0,U,69130,999,385,-.28200148E-3,-.53675E-3,0
STARLINK-37530,2026-110H,2026-06-05T22:21:52.099200,15.80840143,.000083,97.2840,353.1944,62.1150,298.0203,0,U,69131,999,386,.27125343E-3,.52184E-3,0
STARLINK-37660,2026-110J,2026-06-08T04:00:05.000256,15.59762351,.0001752,97.2849,355.4810,98.9919,185.7211,0,U,69132,999,420,-.27452E-1,-.1936593E-1,0
STARLINK-37633,2026-110K,2026-06-08T04:00:05.000256,15.60524761,.0001295,97.2849,355.4890,94.4642,212.0617,0,U,69133,999,420,-.13405E-1,-.994534E-2,0
STARLINK-37361,2026-110L,2026-06-08T04:00:05.000256,15.69191279,.0001775,97.2850,355.5440,81.6300,356.9154,0,U,69134,999,420,-.26531E-1,-.2664105E-1,0
STARLINK-37372,2026-110M,2026-06-08T04:00:05.000256,15.59986582,.0001417,97.2850,355.5042,87.6573,258.2288,0,U,69135,999,420,-.37951E-1,-.2641282E-1,0
STARLINK-37531,2026-110N,2026-06-08T04:00:05.000256,15.66603536,.0001716,97.2851,355.5320,74.4470,335.7705,0,U,69136,999,420,-.28971E-1,-.2622334E-1,0
